{
  "type": "FeatureCollection",
  "features": [
    {
      "type": "Feature",
      "properties": {
        "norad_id": 65731,
        "name": "1998-067XK",
        "group": "stations",
        "lat": -26.42265130663211,
        "lon": 50.248751916446885,
        "alt_km": 364.2762306995983,
        "timestamp": "2025-12-25T07:00:32.798780+00:00",
        "meta_object_name": "1998-067XK",
        "meta_object_id": "1998-067XK",
        "meta_epoch": "2025-12-24T11:16:20.028000",
        "meta_mean_motion": 15.67978094,
        "meta_eccentricity": 0.00049802,
        "meta_inclination": 51.6288,
        "meta_ra_of_asc_node": 77.6233,
        "meta_arg_of_pericenter": 319.0572,
        "meta_mean_anomaly": 41.005,
        "meta_ephemeris_type": 0,
        "meta_classification_type": "U",
        "meta_norad_cat_id": 65731,
        "meta_element_set_no": 999,
        "meta_rev_at_epoch": 1498,
        "meta_bstar": 0.00093626937,
        "meta_mean_motion_dot": 0.00106638,
        "meta_mean_motion_ddot": 0,
        "tle_line1": "1 65731U 98067XK  25358.46967625  .00106638  00000+0  93627-3 0  9993",
        "tle_line2": "2 65731  51.6288  77.6233 0004980 319.0572  41.0050 15.67978094 14988"
      },
      "geometry": {
        "type": "Point",
        "coordinates": [
          50.248751916446885,
          -26.42265130663211
        ]
      }
    },
    {
      "type": "Feature",
      "properties": {
        "norad_id": 65732,
        "name": "RSP-03",
        "group": "stations",
        "lat": 51.45629181898488,
        "lon": 156.49451592050562,
        "alt_km": 348.2949928896742,
        "timestamp": "2025-12-25T07:00:32.798790+00:00",
        "meta_object_name": "RSP-03",
        "meta_object_id": "1998-067XL",
        "meta_epoch": "2025-12-24T13:51:31.108032",
        "meta_mean_motion": 15.71657044,
        "meta_eccentricity": 0.00059433,
        "meta_inclination": 51.626,
        "meta_ra_of_asc_node": 76.0777,
        "meta_arg_of_pericenter": 326.3891,
        "meta_mean_anomaly": 33.6729,
        "meta_ephemeris_type": 0,
        "meta_classification_type": "U",
        "meta_norad_cat_id": 65732,
        "meta_element_set_no": 999,
        "meta_rev_at_epoch": 1502,
        "meta_bstar": 0.0011207936,
        "meta_mean_motion_dot": 0.00149733,
        "meta_mean_motion_ddot": 0,
        "tle_line1": "1 65732U 98067XL  25358.57744338  .00149733  00000+0  11208-2 0  9997",
        "tle_line2": "2 65732  51.6260  76.0777 0005943 326.3891  33.6729 15.71657044 15020"
      },
      "geometry": {
        "type": "Point",
        "coordinates": [
          156.49451592050562,
          51.45629181898488
        ]
      }
    },
    {
      "type": "Feature",
      "properties": {
        "norad_id": 65733,
        "name": "GHS-01",
        "group": "stations",
        "lat": -17.25623585933001,
        "lon": 56.140510171223106,
        "alt_km": 325.3768727323877,
        "timestamp": "2025-12-25T07:00:32.798801+00:00",
        "meta_object_name": "GHS-01",
        "meta_object_id": "1998-067XM",
        "meta_epoch": "2025-12-24T11:22:26.359680",
        "meta_mean_motion": 15.80150374,
        "meta_eccentricity": 0.00095342,
        "meta_inclination": 51.6288,
        "meta_ra_of_asc_node": 74.6328,
        "meta_arg_of_pericenter": 353.1442,
        "meta_mean_anomaly": 6.9427,
        "meta_ephemeris_type": 0,
        "meta_classification_type": "U",
        "meta_norad_cat_id": 65733,
        "meta_element_set_no": 999,
        "meta_rev_at_epoch": 1503,
        "meta_bstar": 0.0014499406,
        "meta_mean_motion_dot": 0.00286733,
        "meta_mean_motion_ddot": 0,
        "tle_line1": "1 65733U 98067XM  25358.47391620  .00286733  00000+0  14499-2 0  9996",
        "tle_line2": "2 65733  51.6288  74.6328 0009534 353.1442   6.9427 15.80150374 15030"
      },
      "geometry": {
        "type": "Point",
        "coordinates": [
          56.140510171223106,
          -17.25623585933001
        ]
      }
    },
    {
      "type": "Feature",
      "properties": {
        "norad_id": 65941,
        "name": "YOTSUBA-KULOVER",
        "group": "stations",
        "lat": 26.022090132541944,
        "lon": -125.9469917914314,
        "alt_km": 382.5853187423145,
        "timestamp": "2025-12-25T07:00:32.798812+00:00",
        "meta_object_name": "YOTSUBA-KULOVER",
        "meta_object_id": "1998-067XN",
        "meta_epoch": "2025-12-24T15:01:23.824416",
        "meta_mean_motion": 15.61031773,
        "meta_eccentricity": 0.0002334,
        "meta_inclination": 51.6294,
        "meta_ra_of_asc_node": 80.1673,
        "meta_arg_of_pericenter": 354.5488,
        "meta_mean_anomaly": 5.548,
        "meta_ephemeris_type": 0,
        "meta_classification_type": "U",
        "meta_norad_cat_id": 65941,
        "meta_element_set_no": 999,
        "meta_rev_at_epoch": 1171,
        "meta_bstar": 0.00084629408,
        "meta_mean_motion_dot": 0.00072714,
        "meta_mean_motion_ddot": 0,
        "tle_line1": "1 65941U 98067XN  25358.62597019  .00072714  00000+0  84629-3 0  9999",
        "tle_line2": "2 65941  51.6294  80.1673 0002334 354.5488   5.5480 15.61031773 11714"
      },
      "geometry": {
        "type": "Point",
        "coordinates": [
          -125.9469917914314,
          26.022090132541944
        ]
      }
    },
    {
      "type": "Feature",
      "properties": {
        "norad_id": 65942,
        "name": "BOTAN",
        "group": "stations",
        "lat": -47.224445027376525,
        "lon": 16.839952394494752,
        "alt_km": 374.6917902627838,
        "timestamp": "2025-12-25T07:00:32.798822+00:00",
        "meta_object_name": "BOTAN",
        "meta_object_id": "1998-067XP",
        "meta_epoch": "2025-12-24T22:06:45.138528",
        "meta_mean_motion": 15.65433076,
        "meta_eccentricity": 0.00033628,
        "meta_inclination": 51.6276,
        "meta_ra_of_asc_node": 77.6384,
        "meta_arg_of_pericenter": 336.9031,
        "meta_mean_anomaly": 23.1813,
        "meta_ephemeris_type": 0,
        "meta_classification_type": "U",
        "meta_norad_cat_id": 65942,
        "meta_element_set_no": 999,
        "meta_rev_at_epoch": 1177,
        "meta_bstar": 0.0011375872,
        "meta_mean_motion_dot": 0.00117098,
        "meta_mean_motion_ddot": 0,
        "tle_line1": "1 65942U 98067XP  25358.92135577  .00117098  00000+0  11376-2 0  9993",
        "tle_line2": "2 65942  51.6276  77.6384 0003362 336.9031  23.1813 15.65433076 11773"
      },
      "geometry": {
        "type": "Point",
        "coordinates": [
          16.839952394494752,
          -47.224445027376525
        ]
      }
    },
    {
      "type": "Feature",
      "properties": {
        "norad_id": 65943,
        "name": "E-KAGAKU-1",
        "group": "stations",
        "lat": 26.410149085875002,
        "lon": -126.3523636019885,
        "alt_km": 382.07740173942966,
        "timestamp": "2025-12-25T07:00:32.798835+00:00",
        "meta_object_name": "E-KAGAKU-1",
        "meta_object_id": "1998-067XQ",
        "meta_epoch": "2025-12-24T11:57:09.904320",
        "meta_mean_motion": 15.61022855,
        "meta_eccentricity": 0.00014072,
        "meta_inclination": 51.6316,
        "meta_ra_of_asc_node": 80.8196,
        "meta_arg_of_pericenter": 317.6976,
        "meta_mean_anomaly": 42.3909,
        "meta_ephemeris_type": 0,
        "meta_classification_type": "U",
        "meta_norad_cat_id": 65943,
        "meta_element_set_no": 999,
        "meta_rev_at_epoch": 1169,
        "meta_bstar": 0.00086882896,
        "meta_mean_motion_dot": 0.00074652,
        "meta_mean_motion_ddot": 0,
        "tle_line1": "1 65943U 98067XQ  25358.49803130  .00074652  00000+0  86883-3 0  9997",
        "tle_line2": "2 65943  51.6316  80.8196 0001407 317.6976  42.3909 15.61022855 11693"
      },
      "geometry": {
        "type": "Point",
        "coordinates": [
          -126.3523636019885,
          26.410149085875002
        ]
      }
    },
    {
      "type": "Feature",
      "properties": {
        "norad_id": 66052,
        "name": "HRC MONOBLOCK CAMERA",
        "group": "stations",
        "lat": -37.548617523768606,
        "lon": -63.60383834393289,
        "alt_km": 404.8526670110732,
        "timestamp": "2025-12-25T07:00:32.798846+00:00",
        "meta_object_name": "HRC MONOBLOCK CAMERA",
        "meta_object_id": "1998-067XR",
        "meta_epoch": "2025-12-23T23:10:15.977280",
        "meta_mean_motion": 15.54901889,
        "meta_eccentricity": 0.0002152,
        "meta_inclination": 51.6306,
        "meta_ra_of_asc_node": 85.5033,
        "meta_arg_of_pericenter": 238.968,
        "meta_mean_anomaly": 121.11,
        "meta_ephemeris_type": 0,
        "meta_classification_type": "U",
        "meta_norad_cat_id": 66052,
        "meta_element_set_no": 999,
        "meta_rev_at_epoch": 1058,
        "meta_bstar": 0.0005004,
        "meta_mean_motion_dot": 0.00033738,
        "meta_mean_motion_ddot": 0,
        "tle_line1": "1 66052U 98067XR  25357.96546270  .00033738  00000+0  50040-3 0  9995",
        "tle_line2": "2 66052  51.6306  85.5033 0002152 238.9680 121.1100 15.54901889 10582"
      },
      "geometry": {
        "type": "Point",
        "coordinates": [
          -63.60383834393289,
          -37.548617523768606
        ]
      }
    }
  ]
}